QIANFAN-41              
1 62242U 24232F   25299.43481113  .00000209  00000+0  30501-3 0  9993
2 62242  89.0035  45.9594 0012680 333.6659  26.3846 13.50981393 92867
QIANFAN-42              
1 62243U 24232G   25299.49630095  .00000820  00000+0  34829-3 0  9991
2 62243  89.0030  42.7417 0013469 233.0412 126.9548 14.24410986 94649
QIANFAN-43              
1 62244U 24232H   25299.50478244  .00000208  00000+0  30346-3 0  9990
2 62244  89.0039  46.0155 0014311 338.5581  21.4968 13.50982374 61484
QIANFAN-44              
1 62245U 24232J   25299.49236566  .00000196  00000+0  28559-3 0  9997
2 62245  89.0038  45.8283 0012475 336.1519  23.9053 13.50983560 92953
QIANFAN-45              
1 62246U 24232K   25299.53360398  .00000196  00000+0  28550-3 0  9995
2 62246  89.0041  45.9690 0013102 335.3581  24.6942 13.50980154 92882
QIANFAN-46              
1 62247U 24232L   25299.41013090  .00000197  00000+0  28667-3 0  9997
2 62247  89.0037  46.0523 0013332 341.7007  18.3663 13.50980682 92824
QIANFAN-47              
1 62248U 24232M   25299.48831051  .00000200  00000+0  29142-3 0  9994
2 62248  89.0033  45.9793 0013723 340.3372  19.7248 13.50982526 92869
QIANFAN-48              
1 62249U 24232N   25299.52543630  .00000209  00000+0  30530-3 0  9995
2 62249  89.0037  45.9755 0016019 342.1835  17.8752 13.50978637 92875
